IRIDIUM 7 [-]           
1 24793U 97020B   23336.27922317  .00001208  00000+0  41755-3 0  9998
2 24793  86.3978  52.6808 0002102  99.0354 261.1080 14.35000841391144
IRIDIUM 4 [-]           
1 24796U 97020E   23336.27293499  .00001204  00000+0  40859-3 0  9993
2 24796  86.3974  49.9349 0001922  93.6280 266.5136 14.35909691391668
IRIDIUM 914 [-]         
1 24836U 97030A   23336.27521866  .00001590  00000+0  50179-3 0  9995
2 24836  86.3948  60.1820 0000276  72.1717 287.9512 14.39734667526108
IRIDIUM 16 [-]          
1 24841U 97030F   23336.37822357  .00001594  00000+0  52501-3 0  9996
2 24841  86.4034  81.6153 0004085 103.3593 256.8060 14.37620522386119
IRIDIUM 911 [-]         
1 24842U 97030G   23336.37289529  .00002208  00000+0  61167-3 0  9996
2 24842  86.4460  80.9085 0014889 165.2218 194.9423 14.46173641393706
IRIDIUM 17 [-]          
1 24870U 97034B   23336.43140570  .00001658  00000+0  55641-3 0  9998
2 24870  86.3945 111.2560 0003520  74.9703 285.1883 14.36710983382756
IRIDIUM 920 [-]         
1 24871U 97034C   23336.39497864  .00001703  00000+0  52972-3 0  9990
2 24871  86.3968  91.8062 0013022 131.2129 229.0195 14.40435182385531
